{"type": "FeatureCollection", "features": [ {"type": "Feature", "properties": {"norad_id": 66513, "name": "STARLINK-35692", "group": "last-30-days", "lat": 4.783109833172801, "lon": -41.8574654477884, "alt_km": 414.3144743645935, "timestamp": "2025-12-09T14:52:24.941485+00:00", "meta": {"OBJECT_NAME": "STARLINK-35692", "OBJECT_ID": "2025-263AE", "EPOCH": "2025-12-09T06:00:02.000160", "MEAN_MOTION": 15.50632716, "ECCENTRICITY": 0.00015121, "INCLINATION": 43.0005, "RA_OF_ASC_NODE": 145.4573, "ARG_OF_PERICENTER": 261.0193, "MEAN_ANOMALY": 5.6574, "EPHEMERIS_TYPE": 0, "CLASSIFICATION_TYPE": "U", "NORAD_CAT_ID": 66513, "ELEMENT_SET_NO": 999, "REV_AT_EPOCH": 507, "BSTAR": -0.0023029313, "MEAN_MOTION_DOT": -0.00133423, "MEAN_MOTION_DDOT": 0}, "tle": {"line1": "1 66513U 25263AE  25343.25002315 -.00133423  00000+0 -23029-2 0  9999", "line2": "2 66513  43.0005 145.4573 0001512 261.0193   5.6574 15.50632716  5070"}}, "geometry": {"type": "Point", "coordinates": [-41.8574654477884, 4.783109833172801]}}, {"type": "Feature", "properties": {"norad_id": 66514, "name": "SENTINEL-6B", "group": "last-30-days", "lat": 62.10175177598781, "lon": -68.20752774337868, "alt_km": 1333.893086942563, "timestamp": "2025-12-09T14:52:24.941498+00:00", "meta": {"OBJECT_NAME": "SENTINEL-6B", "OBJECT_ID": "2025-264A", "EPOCH": "2025-12-08T23:22:28.384896", "MEAN_MOTION": 12.84031992, "ECCENTRICITY": 0.00210406, "INCLINATION": 66.0385, "RA_OF_ASC_NODE": 170.2707, "ARG_OF_PERICENTER": 268.23, "MEAN_ANOMALY": 91.6307, "EPHEMERIS_TYPE": 0, "CLASSIFICATION_TYPE": "U", "NORAD_CAT_ID": 66514, "ELEMENT_SET_NO": 999, "REV_AT_EPOCH": 280, "BSTAR": 0.000106025, "MEAN_MOTION_DOT": -3.6e-07, "MEAN_MOTION_DDOT": 0}, "tle": {"line1": "1 66514U 25264A   25342.97393964 -.00000036  00000+0  10602-3 0  9998", "line2": "2 66514  66.0385 170.2707 0021040 268.2300  91.6307 12.84031992  2809"}}, "geometry": {"type": "Point", "coordinates": [-68.20752774337868, 62.10175177598781]}}, {"type": "Feature", "properties": {"norad_id": 66516, "name": "STARLINK-35924", "group": "last-30-days", "lat": -14.060261394733528, "lon": 56.67839171874396, "alt_km": 412.24299653989874, "timestamp": "2025-12-09T14:52:24.941509+00:00", "meta": {"OBJECT_NAME": "STARLINK-35924", "OBJECT_ID": "2025-265A", "EPOCH": "2025-12-09T06:00:02.000160", "MEAN_MOTION": 15.53426323, "ECCENTRICITY": 0.00016967, "INCLINATION": 43.0002, "RA_OF_ASC_NODE": 74.4387, "ARG_OF_PERICENTER": 266.0388, "MEAN_ANOMALY": 164.1309, "EPHEMERIS_TYPE": 0, "CLASSIFICATION_TYPE": "U", "NORAD_CAT_ID": 66516, "ELEMENT_SET_NO": 999, "REV_AT_EPOCH": 441, "BSTAR": -0.032187241, "MEAN_MOTION_DOT": -0.01851169, "MEAN_MOTION_DDOT": 0}, "tle": {"line1": "1 66516U 25265A   25343.25002315 -.01851169  00000+0 -32187-1 0  9993", "line2": "2 66516  43.0002  74.4387 0001696 266.0388 164.1309 15.53426323  4410"}}, "geometry": {"type": "Point", "coordinates": [56.67839171874396, -14.060261394733528]}}, {"type": "Feature", "properties": {"norad_id": 66517, "name": "STARLINK-35937", "group": "last-30-days", "lat": -12.797978379945844, "lon": 58.15563842434727, "alt_km": 412.0428163968554, "timestamp": "2025-12-09T14:52:24.941519+00:00", "meta": {"OBJECT_NAME": "STARLINK-35937", "OBJECT_ID": "2025-265B", "EPOCH": "2025-12-09T06:00:02.000160", "MEAN_MOTION": 15.53424968, "ECCENTRICITY": 0.00017159, "INCLINATION": 42.9999, "RA_OF_ASC_NODE": 74.4347, "ARG_OF_PERICENTER": 270.4899, "MEAN_ANOMALY": 161.5973, "EPHEMERIS_TYPE": 0, "CLASSIFICATION_TYPE": "U", "NORAD_CAT_ID": 66517, "ELEMENT_SET_NO": 999, "REV_AT_EPOCH": 443, "BSTAR": -0.032164721, "MEAN_MOTION_DOT": -0.01849955, "MEAN_MOTION_DDOT": 0}, "tle": {"line1": "1 66517U 25265B   25343.25002315 -.01849955  00000+0 -32165-1 0  9990", "line2": "2 66517  42.9999  74.4347 0001715 270.4899 161.5973 15.53424968  4431"}}, "geometry": {"type": "Point", "coordinates": [58.15563842434727, -12.797978379945844]}}, {"type": "Feature", "properties": {"norad_id": 66518, "name": "STARLINK-35962", "group": "last-30-days", "lat": -11.526524382666702, "lon": 59.61768893373079, "alt_km": 411.965844393786, "timestamp": "2025-12-09T14:52:24.941529+00:00", "meta": {"OBJECT_NAME": "STARLINK-35962", "OBJECT_ID": "2025-265C", "EPOCH": "2025-12-09T06:00:02.000160", "MEAN_MOTION": 15.53426464, "ECCENTRICITY": 0.00016522, "INCLINATION": 42.9997, "RA_OF_ASC_NODE": 74.4291, "ARG_OF_PERICENTER": 271.0924, "MEAN_ANOMALY": 162.9146, "EPHEMERIS_TYPE": 0, "CLASSIFICATION_TYPE": "U", "NORAD_CAT_ID": 66518, "ELEMENT_SET_NO": 999, "REV_AT_EPOCH": 443, "BSTAR": -0.032280281, "MEAN_MOTION_DOT": -0.01855881, "MEAN_MOTION_DDOT": 0}, "tle": {"line1": "1 66518U 25265C   25343.25002315 -.01855881  00000+0 -32280-1 0  9994", "line2": "2 66518  42.9997  74.4291 0001652 271.0924 162.9146 15.53426464  4434"}}, "geometry": {"type": "Point", "coordinates": [59.61768893373079, -11.526524382666702]}}, {"type": "Feature", "properties": {"norad_id": 66519, "name": "STARLINK-35931", "group": "last-30-days", "lat": -10.247999546925971, "lon": 61.067214537863926, "alt_km": 411.87944489980237, "timestamp": "2025-12-09T14:52:24.941539+00:00", "meta": {"OBJECT_NAME": "STARLINK-35931", "OBJECT_ID": "2025-265D", "EPOCH": "2025-12-09T06:00:02.000160", "MEAN_MOTION": 15.53420311, "ECCENTRICITY": 0.00016472, "INCLINATION": 42.9999, "RA_OF_ASC_NODE": 74.4243, "ARG_OF_PERICENTER": 270.1738, "MEAN_ANOMALY": 165.7513, "EPHEMERIS_TYPE": 0, "CLASSIFICATION_TYPE": "U", "NORAD_CAT_ID": 66519, "ELEMENT_SET_NO": 999, "REV_AT_EPOCH": 443, "BSTAR": -0.032051331, "MEAN_MOTION_DOT": -0.01843864, "MEAN_MOTION_DDOT": 0}, "tle": {"line1": "1 66519U 25265D   25343.25002315 -.01843864  00000+0 -32051-1 0  9999", "line2": "2 66519  42.9999  74.4243 0001647 270.1738 165.7513 15.53420311  4435"}}, "geometry": {"type": "Point", "coordinates": [61.067214537863926, -10.247999546925971]}}, {"type": "Feature", "properties": {"norad_id": 66520, "name": "STARLINK-35952", "group": "last-30-days", "lat": -8.963733936311112, "lon": 62.503849060513595, "alt_km": 411.74545031606067, "timestamp": "2025-12-09T14:52:24.941549+00:00", "meta": {"OBJECT_NAME": "STARLINK-35952", "OBJECT_ID": "2025-265E", "EPOCH": "2025-12-09T06:00:02.000160", "MEAN_MOTION": 15.53423356, "ECCENTRICITY": 0.00016773, "INCLINATION": 43.0001, "RA_OF_ASC_NODE": 74.4191, "ARG_OF_PERICENTER": 271.2268, "MEAN_ANOMALY": 166.6117, "EPHEMERIS_TYPE": 0, "CLASSIFICATION_TYPE": "U", "NORAD_CAT_ID": 66520, "ELEMENT_SET_NO": 999, "REV_AT_EPOCH": 443, "BSTAR": -0.032098024, "MEAN_MOTION_DOT": -0.01846441, "MEAN_MOTION_DDOT": 0}, "tle": {"line1": "1 66520U 25265E   25343.25002315 -.01846441  00000+0 -32098-1 0  9996", "line2": "2 66520  43.0001  74.4191 0001677 271.2268 166.6117 15.53423356  4430"}}, "geometry": {"type": "Point", "coordinates": [62.503849060513595, -8.963733936311112]}}, {"type": "Feature", "properties": {"norad_id": 66521, "name": "STARLINK-35915", "group": "last-30-days", "lat": -7.673707986394891, "lon": 63.9308318336547, "alt_km": 411.77060787059145, "timestamp": "2025-12-09T14:52:24.941559+00:00", "meta": {"OBJECT_NAME": "STARLINK-35915", "OBJECT_ID": "2025-265F", "EPOCH": "2025-12-09T06:00:02.000160", "MEAN_MOTION": 15.53419809, "ECCENTRICITY": 0.00015351, "INCLINATION": 43, "RA_OF_ASC_NODE": 74.4143, "ARG_OF_PERICENTER": 266.86, "MEAN_ANOMALY": 172.8978, "EPHEMERIS_TYPE": 0, "CLASSIFICATION_TYPE": "U", "NORAD_CAT_ID": 66521, "ELEMENT_SET_NO": 999, "REV_AT_EPOCH": 443, "BSTAR": -0.032006183, "MEAN_MOTION_DOT": -0.01841468, "MEAN_MOTION_DDOT": 0}, "tle": {"line1": "1 66521U 25265F   25343.25002315 -.01841468  00000+0 -32006-1 0  9990", "line2": "2 66521  43.0000  74.4143 0001535 266.8600 172.8978 15.53419809  4432"}}, "geometry": {"type": "Point", "coordinates": [63.9308318336547, -7.673707986394891]}}, {"type": "Feature", "properties": {"norad_id": 66522, "name": "STARLINK-35946", "group": "last-30-days", "lat": -6.377382238498915, "lon": 65.35082799107433, "alt_km": 411.518976820249, "timestamp": "2025-12-09T14:52:24.941569+00:00", "meta": {"OBJECT_NAME": "STARLINK-35946", "OBJECT_ID": "2025-265G", "EPOCH": "2025-12-09T06:00:02.000160", "MEAN_MOTION": 15.53421627, "ECCENTRICITY": 0.00017191, "INCLINATION": 42.9997, "RA_OF_ASC_NODE": 74.4095, "ARG_OF_PERICENTER": 271.3745, "MEAN_ANOMALY": 170.2983, "EPHEMERIS_TYPE": 0, "CLASSIFICATION_TYPE": "U", "NORAD_CAT_ID": 66522, "ELEMENT_SET_NO": 999, "REV_AT_EPOCH": 443, "BSTAR": -0.032027041, "MEAN_MOTION_DOT": -0.01842751, "MEAN_MOTION_DDOT": 0}, "tle": {"line1": "1 66522U 25265G   25343.25002315 -.01842751  00000+0 -32027-1 0  9990", "line2": "2 66522  42.9997  74.4095 0001719 271.3745 170.2983 15.53421627  4436"}}, "geometry": {"type": "Point", "coordinates": [65.35082799107433, -6.377382238498915]}}, {"type": "Feature", "properties": {"norad_id": 66523, "name": "STARLINK-35969", "group": "last-30-days", "lat": -5.077372255837176, "lon": 66.76369600151334, "alt_km": 411.43535357251585, "timestamp": "2025-12-09T14:52:24.941581+00:00", "meta": {"OBJECT_NAME": "STARLINK-35969", "OBJECT_ID": "2025-265H", "EPOCH": "2025-12-09T06:00:02.000160", "MEAN_MOTION": 15.53420653, "ECCENTRICITY": 0.00017408, "INCLINATION": 43.0001, "RA_OF_ASC_NODE": 74.4048, "ARG_OF_PERICENTER": 270.3494, "MEAN_ANOMALY": 173.2427, "EPHEMERIS_TYPE": 0, "CLASSIFICATION_TYPE": "U", "NORAD_CAT_ID": 66523, "ELEMENT_SET_NO": 999, "REV_AT_EPOCH": 443, "BSTAR": -0.032029136, "MEAN_MOTION_DOT": -0.01842812, "MEAN_MOTION_DDOT": 0}, "tle": {"line1": "1 66523U 25265H   25343.25002315 -.01842812  00000+0 -32029-1 0  9991", "line2": "2 66523  43.0001  74.4048 0001740 270.3494 173.2427 15.53420653  4431"}}, "geometry": {"type": "Point", "coordinates": [66.76369600151334, -5.077372255837176]}}]}